NORAD_CAT_ID,OBJECT_NAME,OBJECT_TYPE,EPOCH,MEAN_MOTION,ECCENTRICITY,INCLINATION,RA_OF_ASC_NODE,ARG_OF_PERICENTER,MEAN_ANOMALY,BSTAR,MEAN_MOTION_DOT,MEAN_MOTION_DDOT,TLE_LINE0,TLE_LINE1,TLE_LINE2,SEMIMAJOR_AXIS,PERIOD,APOGEE,PERIGEE,DECAYED
55659.0,STARLINK-5477,PAYLOAD,2024-03-27 13:51:47,14.98303245,0.0002712,70.0015,160.0843,251.3063,108.7802,5.1368e-06,-3.2e-07,0.0,0 STARLINK-5477,1 55659U 23021AH  24087.57763187 -.00000032  00000-0  51368-5 0  9997,2 55659  70.0015 160.0843 0002712 251.3063 108.7802 14.98303245 62619,6950.276,96.109,574.026,570.256,0.0
55659.0,STARLINK-5477,PAYLOAD,2024-03-27 21:52:26,14.98338462,0.000301,70.0007,159.2405,273.2539,86.8276,-0.00022802,-2.813e-05,0.0,0 STARLINK-5477,1 55659U 23021AH  24087.91141491 -.00002813  00000-0 -22802-3 0  9992,2 55659  70.0007 159.2405 0003010 273.2539  86.8276 14.98338462 62662,6950.167,96.106,574.124,569.94,0.0
55659.0,STARLINK-5477,PAYLOAD,2024-03-28 04:16:59,14.98320733,0.0003187,70.0002,158.5667,266.7077,93.3718,0.00020713,2.379e-05,0.0,0 STARLINK-5477,1 55659U 23021AH  24088.17846212  .00002379  00000-0  20713-3 0  9998,2 55659  70.0002 158.5667 0003187 266.7077  93.3718 14.98320733 62406,6950.222,96.108,574.302,569.872,0.0
55659.0,STARLINK-5477,PAYLOAD,2024-03-28 12:17:38,14.98330812,0.0002912,70.0,157.7263,266.9405,93.1421,0.00037237,4.353e-05,0.0,0 STARLINK-5477,1 55659U 23021AH  24088.51225416  .00004353  00000-0  37237-3 0  9996,2 55659  70.0000 157.7263 0002912 266.9405  93.1421 14.98330812 62452,6950.19,96.107,574.079,570.031,0.0
55659.0,STARLINK-5477,PAYLOAD,2024-03-28 21:54:26,14.98336409,0.0003028,70.0002,156.7165,274.863,85.2183,0.0003681,4.303e-05,0.0,0 STARLINK-5477,1 55659U 23021AH  24088.91281010  .00004303  00000-0  36810-3 0  9993,2 55659  70.0002 156.7165 0003028 274.8630  85.2183 14.98336409 62816,6950.173,96.107,574.143,569.934,0.0
55659.0,STARLINK-5477,PAYLOAD,2024-03-29 04:18:56,14.98363451,0.0003775,70.0007,156.0414,272.0112,88.0615,0.00061497,7.259e-05,0.0,0 STARLINK-5477,1 55659U 23021AH  24089.17981776  .00007259  00000-0  61497-3 0  9990,2 55659  70.0007 156.0414 0003775 272.0112  88.0615 14.98363451 62554,6950.089,96.105,574.578,569.331,0.0
55659.0,STARLINK-5477,PAYLOAD,2024-03-29 12:19:39,14.98329056,0.0002992,70.0,155.2014,268.4689,91.6128,-0.00012601,-1.596e-05,0.0,0 STARLINK-5477,1 55659U 23021AH  24089.51365062 -.00001596  00000-0 -12601-3 0  9995,2 55659  70.0000 155.2014 0002992 268.4689  91.6128 14.98329056 62600,6950.196,96.107,574.14,569.981,0.0
55659.0,STARLINK-5477,PAYLOAD,2024-03-29 13:55:48,14.98315192,0.0002974,70.0008,155.0326,262.4881,97.5941,1.1745e-05,4.7e-07,0.0,0 STARLINK-5477,1 55659U 23021AH  24089.58041692  .00000047  00000-0  11745-4 0  9999,2 55659  70.0008 155.0326 0002974 262.4881  97.5941 14.98315192 62918,6950.239,96.108,574.171,570.037,0.0
55659.0,STARLINK-5477,PAYLOAD,2024-03-29 21:56:28,14.98320261,0.0003238,69.9999,154.192,262.1655,97.9137,0.00011946,1.332e-05,0.0,0 STARLINK-5477,1 55659U 23021AH  24089.91421367  .00001332  00000-0  11946-3 0  9997,2 55659  69.9999 154.1920 0003238 262.1655  97.9137 14.98320261 62963,6950.223,96.108,574.338,569.838,0.0
55659.0,STARLINK-5477,PAYLOAD,2024-03-30 04:20:59,14.98332616,0.0003265,69.9999,153.5191,270.4678,89.6106,-6.3491e-05,-8.51e-06,0.0,0 STARLINK-5477,1 55659U 23021AH  24090.18124898 -.00000851  00000-0 -63491-4 0  9997,2 55659  69.9999 153.5191 0003265 270.4678  89.6106 14.98332616 62706,6950.185,96.107,574.319,569.781,0.0
55659.0,STARLINK-5477,PAYLOAD,2024-03-30 12:21:39,14.98340308,0.0003265,69.9997,152.6772,269.8341,90.2444,-4.6199e-06,-1.48e-06,0.0,0 STARLINK-5477,1 55659U 23021AH  24090.51504222 -.00000148  00000-0 -46199-5 0  9993,2 55659  69.9997 152.6772 0003265 269.8341  90.2444 14.98340308 62753,6950.161,96.106,574.295,569.757,0.0
55659.0,STARLINK-5477,PAYLOAD,2024-03-30 13:57:47,14.98340003,0.0003253,69.9998,152.509,269.9129,90.1657,-5.8517e-06,-1.63e-06,0.0,0 STARLINK-5477,1 55659U 23021AH  24090.58180150 -.00000163  00000-0 -58517-5 0  9994,2 55659  69.9998 152.5090 0003253 269.9129  90.1657 14.98340003 63060,6950.162,96.106,574.288,569.766,0.0
55659.0,STARLINK-5477,PAYLOAD,2024-03-30 21:58:27,14.98341314,0.0003289,69.9997,151.6673,269.8091,90.2691,-1.6204e-05,-2.86e-06,0.0,0 STARLINK-5477,1 55659U 23021AH  24090.91559956 -.00000286  00000-0 -16204-4 0  9997,2 55659  69.9997 151.6673 0003289 269.8091  90.2691 14.98341314 63113,6950.158,96.106,574.309,569.737,0.0
55659.0,STARLINK-5477,PAYLOAD,2024-03-31 04:22:59,14.98360486,0.0003158,69.9996,150.9939,272.7148,87.3649,-0.000393,-4.783e-05,0.0,0 STARLINK-5477,1 55659U 23021AH  24091.18262924 -.00004783  00000-0 -39300-3 0  9990,2 55659  69.9996 150.9939 0003158 272.7148  87.3649 14.98360486 62851,6950.099,96.105,574.158,569.769,0.0
55659.0,STARLINK-5477,PAYLOAD,2024-03-31 13:59:47,14.98339974,0.0003297,70.0006,149.9843,271.3499,88.7282,0.00010948,1.214e-05,0.0,0 STARLINK-5477,1 55659U 23021AH  24091.58319243  .00001214  00000-0  10948-3 0  9992,2 55659  70.0006 149.9843 0003297 271.3499  88.7282 14.98339974 63213,6950.162,96.106,574.319,569.736,0.0
55659.0,STARLINK-5477,PAYLOAD,2024-04-01 12:25:42,14.98322565,0.000301,70.0001,147.6298,267.3578,92.7237,2.5373e-05,2.1e-06,0.0,0 STARLINK-5477,1 55659U 23021AH  24092.51784751  .00000210  00000-0  25373-4 0  9990,2 55659  70.0001 147.6298 0003010 267.3578  92.7237 14.98322565 63058,6950.216,96.107,574.173,569.989,0.0
55659.0,STARLINK-5477,PAYLOAD,2024-04-01 14:01:50,14.98323042,0.0002891,70.0002,147.4612,263.6953,96.3877,4.1489e-05,4.02e-06,0.0,0 STARLINK-5477,1 55659U 23021AH  24092.58460695  .00000402  00000-0  41489-4 0  9994,2 55659  70.0002 147.4612 0002891 263.6953  96.3877 14.98323042 63364,6950.214,96.107,574.089,570.07,0.0
55659.0,STARLINK-5477,PAYLOAD,2024-04-02 02:50:54,14.9833015,0.000337,69.9987,146.1123,271.2914,88.7859,0.00010953,1.214e-05,0.0,0 STARLINK-5477,1 55659U 23021AH  24093.11868137  .00001214  00000-0  10953-3 0  9990,2 55659  69.9987 146.1123 0003370 271.2914  88.7859 14.98330150 63140,6950.192,96.107,574.4,569.715,0.0
55659.0,STARLINK-5477,PAYLOAD,2024-04-02 12:27:42,14.98338002,0.0003283,69.9989,145.1026,271.6098,88.4685,0.0001805,2.062e-05,0.0,0 STARLINK-5477,1 55659U 23021AH  24093.51923617  .00002062  00000-0  18050-3 0  9997,2 55659  69.9989 145.1026 0003283 271.6098  88.4685 14.98338002 63501,6950.168,96.106,574.315,569.751,0.0
55659.0,STARLINK-5477,PAYLOAD,2024-04-02 20:28:22,14.98337348,0.0003309,70.0001,144.261,271.6965,88.3814,0.00016426,1.868e-05,0.0,0 STARLINK-5477,1 55659U 23021AH  24093.85303719  .00001868  00000-0  16426-3 0  9997,2 55659  70.0001 144.2610 0003309 271.6965  88.3814 14.98337348 63550,6950.17,96.107,574.335,569.735,0.0
55659.0,STARLINK-5477,PAYLOAD,2024-04-03 10:53:35,14.9833356,0.0003208,70.0003,142.7465,270.2653,89.8138,0.00020668,2.374e-05,0.0,0 STARLINK-5477,1 55659U 23021AH  24094.45387956  .00002374  00000-0  20668-3 0  9995,2 55659  70.0003 142.7465 0003208 270.2653  89.8138 14.98333560 63344,6950.182,96.107,574.277,569.817,0.0
55659.0,STARLINK-5477,PAYLOAD,2024-04-03 12:29:43,14.98334018,0.0003207,70.0003,142.5782,270.2481,89.8311,0.00020886,2.4e-05,0.0,0 STARLINK-5477,1 55659U 23021AH  24094.52063937  .00002400  00000-0  20886-3 0  9995,2 55659  70.0003 142.5782 0003207 270.2481  89.8311 14.98334018 63658,6950.18,96.107,574.274,569.817,0.0
55659.0,STARLINK-5477,PAYLOAD,2024-04-03 20:30:23,14.98336034,0.0003218,70.0002,141.7364,270.6306,89.4484,0.00016101,1.829e-05,0.0,0 STARLINK-5477,1 55659U 23021AH  24094.85443752  .00001829  00000-0  16101-3 0  9997,2 55659  70.0002 141.7364 0003218 270.6306  89.4484 14.98336034 63709,6950.174,96.107,574.276,569.803,0.0
55659.0,STARLINK-5477,PAYLOAD,2024-04-04 12:31:44,14.98334562,0.0003148,69.999,140.0533,270.2584,89.8214,3.7876e-05,3.59e-06,0.0,0 STARLINK-5477,1 55659U 23021AH  24095.52203787  .00000359  00000-0  37876-4 0  9994,2 55659  69.9990 140.0533 0003148 270.2584  89.8214 14.98334562 63505,6950.179,96.107,574.232,569.856,0.0
55659.0,STARLINK-5477,PAYLOAD,2024-04-04 20:32:24,14.98335658,0.0003207,69.9988,139.2113,271.0551,89.024,3.7442e-05,3.54e-06,0.0,0 STARLINK-5477,1 55659U 23021AH  24095.85583598  .00000354  00000-0  37442-4 0  9995,2 55659  69.9988 139.2113 0003207 271.0551  89.0240 14.98335658 63851,6950.175,96.107,574.269,569.811,0.0
55659.0,STARLINK-5477,PAYLOAD,2024-04-05 12:33:44,14.98335159,0.000304,69.9988,137.5277,265.1664,94.9148,8.0112e-05,8.63e-06,0.0,0 STARLINK-5477,1 55659U 23021AH  24096.52343348  .00000863  00000-0  80112-4 0  9994,2 55659  69.9988 137.5277 0003040 265.1664  94.9148 14.98335159 63653,6950.177,96.107,574.155,569.929,0.0
55659.0,STARLINK-5477,PAYLOAD,2024-04-05 20:34:25,14.9832813,0.0002927,69.9989,136.6855,279.7291,80.3537,0.00018493,2.114e-05,0.0,0 STARLINK-5477,1 55659U 23021AH  24096.85723734  .00002114  00000-0  18493-3 0  9994,2 55659  69.9989 136.6855 0002927 279.7291  80.3537 14.98328130 64008,6950.199,96.107,574.098,570.029,0.0
55659.0,STARLINK-5477,PAYLOAD,2024-04-06 09:23:29,14.98341418,0.0003114,69.9986,135.3392,271.88,88.2002,-9.2888e-05,-1.202e-05,0.0,0 STARLINK-5477,1 55659U 23021AH  24097.39131172 -.00001202  00000-0 -92888-4 0  9993,2 55659  69.9986 135.3392 0003114 271.8800  88.2002 14.98341418 64081,6950.158,96.106,574.187,569.858,0.0
55659.0,STARLINK-5477,PAYLOAD,2024-04-07 09:25:30,14.98332307,0.0002538,69.9999,132.8153,259.1521,100.9353,-0.00013655,-1.722e-05,0.0,0 STARLINK-5477,1 55659U 23021AH  24098.39271908 -.00001722  00000-0 -13655-3 0  9997,2 55659  69.9999 132.8153 0002538 259.1521 100.9353 14.98332307 64235,6950.186,96.107,573.815,570.287,0.0
55659.0,STARLINK-5477,PAYLOAD,2024-04-07 19:02:18,14.98363961,0.0003053,70.0002,131.8048,274.2255,85.8556,-0.00065998,-7.966e-05,0.0,0 STARLINK-5477,1 55659U 23021AH  24098.79326649 -.00007966  00000-0 -65998-3 0  9997,2 55659  70.0002 131.8048 0003053 274.2255  85.8556 14.98363961 63998,6950.088,96.105,574.075,569.831,0.0
